STARLINK-1566           
1 46079U 20055BE  25115.92998639  .00000638  00000+0  61734-4 0  9998
2 46079  53.0545  83.0904 0001324  90.3197 269.7943 15.06396454261410
STARLINK-1568           
1 46080U 20055BF  25115.92066709  .00030006  00000+0  14081-2 0  9997
2 46080  53.0506  75.7680 0001825  59.7887 300.3288 15.19425952261491
STARLINK-1578           
1 46082U 20055BH  25115.21491103 -.00000507  00000+0 -15168-4 0  9995
2 46082  53.0566  86.3095 0001618 103.9316 256.1853 15.06403696261309
STARLINK-1579           
1 46083U 20055BJ  25115.64891100  .00000524  00000+0  54064-4 0  9999
2 46083  53.0543  84.3475 0001290  86.6055 273.5082 15.06403482261364
STARLINK-1585           
1 46117U 20057A   25115.81571178  .00012853  00000+0  87923-3 0  9995
2 46117  53.0532 283.6106 0002126  60.4739 299.6462 15.06440859258437
STARLINK-1588           
1 46118U 20057B   25115.91668981  .00387076  00000+0  18798-2 0  9991
2 46118  53.0494 285.9479 0006590 302.4526 254.7863 15.80833777  5990
STARLINK-1593           
1 46119U 20057C   25115.84708639  .00001874  00000+0  14459-3 0  9999
2 46119  53.0551 303.8199 0001123  76.4798 283.6316 15.06411645259416
STARLINK-1601           
1 46120U 20057D   25115.86547769  .00008085  00000+0  56081-3 0  9996
2 46120  53.0537 303.3872 0001283  81.5818 278.5316 15.06417494259446
STARLINK-1605           
1 46123U 20057G   25115.76225918  .00004625  00000+0  32906-3 0  9993
2 46123  53.0529 263.8491 0001562  91.7616 268.3552 15.06416753259363
STARLINK-1614           
1 46124U 20057H   25115.76966661  .00005210  00000+0  36848-3 0  9991
2 46124  53.0479 263.8191 0002548  78.8884 281.2391 15.06391148259379
STARLINK-1618           
1 46125U 20057J   25115.81755596  .00000844  00000+0  75537-4 0  9998
2 46125  53.0536 303.5977 0001247  73.4714 286.6411 15.06414547259412
STARLINK-1621           
1 46127U 20057L   25115.84888166  .00004870  00000+0  34539-3 0  9992
2 46127  53.0520 283.4582 0001790  89.4515 270.6679 15.06423104258433
STARLINK-1622           
1 46128U 20057M   25115.81019485  .00000139  00000+0  28218-4 0  9992
2 46128  53.0554 263.6370 0001157  92.4929 267.6192 15.06393824259371
STARLINK-1623           
1 46129U 20057N   25115.78436914  .00004448  00000+0  31716-3 0  9992
2 46129  53.0531 263.7454 0001028  77.2422 282.8681 15.06420261258712
STARLINK-1624           
1 46130U 20057P   25115.75119837  .00000317  00000+0  40130-4 0  9995
2 46130  53.0523 263.9018 0002000  65.8755 294.2443 15.06434299259952
STARLINK-1625           
1 46131U 20057Q   25115.83045573  .00004632  00000+0  32946-3 0  9999
2 46131  53.0530 283.5422 0001307  81.5514 278.5623 15.06422091259698
STARLINK-1639           
1 46135U 20057U   25115.91668981  .00092652  00000+0  14808-2 0  9991
2 46135  53.0503 257.5853 0001373  57.0092  69.7143 15.52424561  5874
STARLINK-1643           
1 46136U 20057V   25115.21030236 -.00016903  00000+0 -11171-2 0  9998
2 46136  53.0480 296.3641 0003755  81.3175 278.8239 15.06440090258865
STARLINK-1586           
1 46137U 20057W   25115.91668981  .01289563  00000+0  34459-1 0  9996
2 46137  53.0526 281.9062 0001338  72.2203 359.5796 15.34784236  5791
STARLINK-1596           
1 46141U 20057AA  25115.77498495  .00065288  00000+0  36159-2 0  9991
2 46141  53.0530 261.8808 0002694 290.3396  69.7306 15.13228078259396
STARLINK-1597           
1 46142U 20057AB  25115.90970791 -.00004931  00000+0 -31238-3 0  9995
2 46142  53.0506 303.1858 0002042  91.2811 268.8412 15.06396934258165
STARLINK-1606           
1 46144U 20057AD  25115.80834261  .00007297  00000+0  50795-3 0  9992
2 46144  53.0528 283.6386 0001745 101.7261 258.3924 15.06422123259101
STARLINK-1608           
1 46146U 20057AF  25115.85442170  .00006223  00000+0  43605-3 0  9993
2 46146  53.0538 303.4386 0001336  94.9734 265.1408 15.06419282258169
STARLINK-1616           
1 46148U 20057AH  25115.91668981  .00577937  14599-3  15508-2 0  9999
2 46148  53.0368 239.3698 0013815 324.2786 282.2453 15.93707111259681
STARLINK-1629           
1 46150U 20057AK  25115.89332386  .00050351  00000+0  22875-2 0  9995
2 46150  53.0469 302.3164 0000789 114.6940 245.4138 15.20298888258185
STARLINK-1631           
1 46151U 20057AL  25115.91668981  .00448965  00000+0  36426-2 0  9991
2 46151  53.0454 262.1539 0011417 275.9399  78.3945 15.68778741  6002
STARLINK-1636           
1 46153U 20057AN  25115.91668981  .00212477  00000+0  51335-2 0  9996
2 46153  53.0327 267.3721 0007346 178.2925 329.8778 15.39846371  5920
STARLINK-1642           
1 46154U 20057AP  25115.78899116  .00007054  00000+0  49168-3 0  9993
2 46154  53.0535 293.7285 0001236  78.9652 281.1476 15.06422718258299
STARLINK-1667           
1 46155U 20057AQ  25115.81385225 -.00001541  00000+0 -84460-4 0  9991
2 46155  53.0544 263.6169 0001486 103.8606 256.2548 15.06434404259379
STARLINK-1545           
1 46156U 20057AR  25115.80465722  .00006501  00000+0  45479-3 0  9997
2 46156  53.0521 283.6588 0001804  70.3015 289.8168 15.06413922259684
STARLINK-1587           
1 46157U 20057AS  25115.72542175  .00019403  00000+0  13202-2 0  9990
2 46157  53.0605 264.0099 0002277  57.3593 302.7616 15.06335312258700
STARLINK-1595           
1 46159U 20057AU  25115.49688440  .00002348  00000+0  17643-3 0  9996
2 46159  53.0545 305.0380 0001371  87.4935 272.6210 15.06413301258768
STARLINK-1598           
1 46160U 20057AV  25115.81939923  .00010176  00000+0  70048-3 0  9995
2 46160  53.0516 283.5926 0001476  95.5434 264.5724 15.06429413259687
STARLINK-1600           
1 46161U 20057AW  25115.91668981  .00349741  00000+0  28608-2 0  9997
2 46161  53.0326 245.0664 0007337 311.2636 233.0438 15.68919287  6014
STARLINK-1610           
1 46163U 20057AY  25114.64861263  .00759187  24896-3  21600-2 0  9993
2 46163  53.0443 242.7519 0015046 299.8980 144.9224 15.92568043259568
STARLINK-1612           
1 46164U 20057AZ  25115.72909026  .00003378  00000+0  24542-3 0  9994
2 46164  53.0543 263.9964 0001195  87.9026 272.2100 15.06417697259961
STARLINK-1626           
1 46167U 20057BC  25115.92814025  .00012052  00000+0  82609-3 0  9990
2 46167  53.0540 303.1064 0001374  81.9711 278.1434 15.06424072258175
STARLINK-1627           
1 46168U 20057BD  25115.77424807  .00002794  00000+0  20632-3 0  9999
2 46168  53.0534 253.8794 0001600  89.9733 270.1439 15.06419115258847
STARLINK-1628           
1 46169U 20057BE  25115.86378469 -.00064637  00000+0 -10025-2 0  9992
2 46169  53.0517 267.6550 0003177 296.5768  63.4915 15.53456816259234
STARLINK-1633           
1 46171U 20057BG  25115.83786066  .00017292  00000+0  11771-2 0  9990
2 46171  53.0531 283.5068 0001642  87.9044 272.2133 15.06394964259693
STARLINK-1635           
1 46172U 20057BH  25115.78622729  .00004580  00000+0  32605-3 0  9996
2 46172  53.0549 283.7390 0001293  77.8330 282.2803 15.06412841259084
STARLINK-1640           
1 46173U 20057BJ  25115.50057448  .00002180  00000+0  16521-3 0  9990
2 46173  53.0551 305.0220 0001240  91.3601 268.7530 15.06394078258763
STARLINK-1641           
1 46174U 20057BK  25115.83969361  .00021337  00000+0  14474-2 0  9992
2 46174  53.0536 303.5027 0001881  89.9441 270.1764 15.06390028258151
STARLINK-1734           
1 46325U 20062A   25115.91668981  .00120896  00000+0  46177-2 0  9994
2 46325  53.0377 311.7558 0009193 186.1414 216.1294 15.25680354  5890
STARLINK-1654           
1 46326U 20062B   25115.71623511  .00002355  00000+0  17690-3 0  9991
2 46326  53.0570   4.2999 0002218  93.0776 267.0467 15.06405770256382
STARLINK-1673           
1 46327U 20062C   25115.91668981  .00271134  00000+0  31831-2 0  9999
2 46327  53.0288 317.8785 0005769 165.1852  57.9960 15.60048115  5983
STARLINK-1686           
1 46328U 20062D   25115.91705768  .00016849  00000+0  11458-2 0  9998
2 46328  53.0548 343.1561 0001302 114.6767 245.4357 15.06449293256692
STARLINK-1695           
1 46329U 20062E   25115.66667824 -.00006985  00000+0 -44974-3 0  9993
2 46329  53.0544 344.2782 0002175 110.2566 151.0544 15.06456637  5753
STARLINK-1710           
1 46330U 20062F   25115.01034379  .00019857  00000+0  13476-2 0  9999
2 46330  53.0543 347.2223 0000805  56.8603 303.2463 15.06417370256561
STARLINK-1719           
1 46331U 20062G   25115.97423499 -.00004655  00000+0 -29400-3 0  9997
2 46331  53.0521   2.8948 0001000 352.6577   7.4397 15.06377430256427
STARLINK-1723           
1 46333U 20062J   25115.66828820  .00003444  00000+0  24999-3 0  9993
2 46333  53.0562   4.2747 0001589  80.4086 279.7083 15.06395178256379
STARLINK-1727           
1 46335U 20062L   25115.96317644  .00023525  00000+0  15934-2 0  9995
2 46335  53.0529   2.9436 0001802  88.4404 271.6792 15.06389386256422
STARLINK-1738           
1 46336U 20062M   25115.35682395  .00008584  00000+0  59432-3 0  9997
2 46336  53.0544 345.6667 0001464  75.8425 284.2726 15.06407237256603
STARLINK-1750           
1 46337U 20062N   25115.90236259  .00015302  00000+0  10436-2 0  9999
2 46337  53.0488 343.2145 0003611  96.9063 263.2337 15.06409070256695
STARLINK-1752           
1 46338U 20062P   25115.68672754  .00012083  00000+0  82889-3 0  9994
2 46338  53.0559   4.1876 0002491  85.0960 275.0314 15.06390482256376
STARLINK-1759           
1 46340U 20062R   25115.69043216  .00010684  00000+0  73449-3 0  9990
2 46340  53.0563   4.4862 0001366  85.2283 274.8862 15.06430428256361
STARLINK-1762           
1 46342U 20062T   25115.97791614 -.00010635  00000+0 -69657-3 0  9999
2 46342  53.0567   2.8799 0001275  69.7937 290.3189 15.06377378256426
STARLINK-1764           
1 46343U 20062U   25115.37526367  .00009015  00000+0  62356-3 0  9992
2 46343  53.0559 345.5905 0002184  67.5280 292.5940 15.06385627256617
STARLINK-1765           
1 46344U 20062V   25115.92447658  .00003682  00000+0  26612-3 0  9998
2 46344  53.0550 343.1213 0001819  92.5661 267.5537 15.06377542256699
